OBJECT_NAME,OBJECT_ID,EPOCH,MEAN_MOTION,ECCENTRICITY,INCLINATION,RA_OF_ASC_NODE,ARG_OF_PERICENTER,MEAN_ANOMALY,EPHEMERIS_TYPE,CLASSIFICATION_TYPE,NORAD_CAT_ID,ELEMENT_SET_NO,REV_AT_EPOCH,BSTAR,MEAN_MOTION_DOT,MEAN_MOTION_DDOT
STARLINK-5503,2023-094AR,2024-09-27T22:49:25.358016,15.02525822,.0001127,43.0080,4.9706,259.0936,100.9780,0,U,57257,999,6806,.22687E-3,.2861E-4,0
STARLINK-5476,2023-094AS,2024-09-27T12:57:27.465408,15.02555171,.0000262,43.0016,7.0388,250.1359,109.9455,0,U,57258,999,6782,-.33925E-3,-.4785E-4,0
STARLINK-5026,2023-094AU,2024-09-27T14:23:36.253824,15.02539080,.0002272,43.0088,6.6352,272.0034,88.0548,0,U,57260,999,6847,.86594E-4,.966E-5,0
STARLINK-5485,2023-094AV,2024-09-27T15:58:58.247616,15.02532235,.0001396,43.0064,19.2772,259.3460,100.7225,0,U,57261,999,6793,.22212E-4,.96E-6,0
STARLINK-5504,2023-094AW,2024-09-27T13:00:40.140000,15.02538981,.0000699,43.0059,7.0654,282.5353,77.5411,0,U,57262,999,6782,.14966E-3,.1819E-4,0
STARLINK-5509,2023-094AX,2024-09-27T14:21:38.329056,15.02533201,.0000797,43.0031,19.6306,258.8320,101.2433,0,U,57263,999,6768,.12085E-4,-.4E-6,0
STARLINK-5858,2023-094AY,2024-09-27T14:17:13.537248,15.02524067,.000121,43.0068,6.6021,278.5511,81.5194,0,U,57264,999,6783,-.12403E-4,-.371E-5,0
STARLINK-5890,2023-094AZ,2024-09-27T14:14:01.209120,15.02531575,.0001039,43.0043,6.5837,267.2091,92.8632,0,U,57265,999,6783,.49363E-4,.463E-5,0
HULIANWANG JISHU SHIYAN A,2023-095A,2024-09-28T02:28:09.101568,13.39482180,.0018908,86.5044,221.7106,131.8229,228.4532,0,U,57288,999,5980,.16018E-3,.102E-5,0
HULIANWANG JISHU SHIYAN B,2023-095B,2024-09-28T02:17:35.760192,13.39483076,.0017469,86.5046,221.7137,129.9394,230.3286,0,U,57289,999,5980,.17154E-3,.108E-5,0
STARLINK-30198,2023-096A,2024-09-28T03:01:35.493600,15.02539689,.0000908,43.0023,210.1790,269.2172,90.8566,0,U,57290,999,6715,.44242E-4,.394E-5,0
STARLINK-30239,2023-096B,2024-09-28T02:56:47.818752,15.02539616,.0001613,43.0029,210.1560,271.8721,88.1936,0,U,57291,999,6715,.22067E-3,.2779E-4,0
STARLINK-30210,2023-096C,2024-09-28T02:52:00.175872,15.02538355,.0001953,43.0040,210.1319,284.1936,75.8689,0,U,57292,999,6717,.19958E-3,.2493E-4,0
STARLINK-30235,2023-096E,2024-09-28T02:42:24.982560,15.02533598,.0001445,43.0025,210.0759,264.4716,95.5962,0,U,57294,999,6715,-.14958E-4,-.406E-5,0
STARLINK-30206,2023-096F,2024-09-27T12:44:49.815168,15.02532077,.0001101,43.0026,213.4220,275.4334,84.6383,0,U,57295,999,6816,.13648E-3,.164E-4,0
STARLINK-30238,2023-096G,2024-09-27T20:14:42.790848,15.02529418,.000084,43.0032,211.4961,279.8080,80.2668,0,U,57296,999,6823,.51865E-4,.497E-5,0
STARLINK-30234,2023-096H,2024-09-28T02:32:48.795648,15.02548982,.0000897,43.0030,210.0319,277.7967,82.2773,0,U,57297,999,6715,-.5728E-4,-.977E-5,0
STARLINK-30241,2023-096J,2024-09-27T13:08:38.730336,15.02533183,.0000719,43.0007,212.7088,288.4042,71.6722,0,U,57298,999,6817,.6106E-4,.621E-5,0
STARLINK-30199,2023-096K,2024-09-27T13:42:12.699648,15.02531826,.0000735,43.0021,212.8944,272.5041,87.5717,0,U,57299,999,6817,.36901E-4,.295E-5,0
STARLINK-30236,2023-096L,2024-09-28T02:23:14.364384,15.02522703,.0001367,43.0029,209.9762,271.6450,88.4235,0,U,57300,999,6716,.45922E-3,.6003E-4,0
STARLINK-30201,2023-096M,2024-09-27T13:32:36.789216,15.02540436,.000091,43.0010,212.8433,282.6609,77.4131,0,U,57301,999,6707,.14258E-3,.1723E-4,0
STARLINK-30233,2023-096N,2024-09-27T05:29:10.567392,15.02527782,.0001107,43.0000,214.6055,245.7400,114.3326,0,U,57302,999,6722,-.25281E-4,-.545E-5,0
STARLINK-30232,2023-096P,2024-09-27T13:23:01.920768,15.02529075,.000178,43.0031,212.8077,262.8562,97.2078,0,U,57303,999,6803,.24759E-4,.131E-5,0
STARLINK-30211,2023-096Q,2024-09-27T13:18:13.595328,15.02532637,.0001524,43.0040,212.7630,257.8480,102.2192,0,U,57304,999,6708,.55803E-4,.55E-5,0
STARLINK-30177,2023-096R,2024-09-27T13:13:26.539104,15.02530559,.0000497,43.0023,212.7438,249.4652,110.6137,0,U,57305,999,6727,.6399E-4,.661E-5,0
STARLINK-30200,2023-096S,2024-09-27T19:42:44.559648,15.02531111,.0001595,43.0051,211.3277,278.6274,81.4387,0,U,57306,999,6731,.37239E-4,.299E-5,0
STARLINK-30209,2023-096T,2024-09-27T19:26:45.355488,15.02534675,.0001233,43.0038,211.2412,268.1886,91.8816,0,U,57307,999,6731,.19843E-4,.64E-6,0
STARLINK-30194,2023-096U,2024-09-28T03:20:35.570112,15.02541376,.0001213,43.0018,209.4173,269.6788,90.3916,0,U,57308,999,6716,.11146E-3,.1303E-4,0
STARLINK-30163,2023-096V,2024-09-27T12:39:57.784896,15.02794826,.0000993,43.0018,212.5724,152.7252,207.3642,0,U,57309,999,6726,.19846E-2,.26893E-3,0
STARLINK-30184,2023-096W,2024-09-27T11:38:28.944672,15.02534438,.0001284,43.0052,187.2507,276.1701,83.8995,0,U,57310,999,6756,-.27792E-4,-.579E-5,0
