57257,STARLINK-5503,2023,95.84,-1.0,+,43.0,Active,0,LEO,USA,USA,Unknown,Unknown,Unknown,1 57257U 23094AR  24271.95098794  .00002861  00000+0  22687-3 0  9995,2 57257  43.0080   4.9706 0001127 259.0936 100.9780 15.02525822 68061,15.02525822,0.0001127,LEO
57258,STARLINK-5476,2023,95.84,-1.0,+,43.0,Active,0,LEO,USA,USA,Unknown,Unknown,Unknown,1 57258U 23094AS  24271.53990122 -.00004785  00000+0 -33925-3 0  9992,2 57258  43.0016   7.0388 0000262 250.1359 109.9455 15.02555171 67822,15.02555171,2.62e-05,LEO
57260,STARLINK-5026,2023,95.84,-1.0,+,43.01,Active,0,LEO,USA,USA,Unknown,Unknown,Unknown,1 57260U 23094AU  24271.59972516  .00000966  00000+0  86594-4 0  9994,2 57260  43.0088   6.6352 0002272 272.0034  88.0548 15.02539080 68479,15.0253908,0.0002272,LEO
57261,STARLINK-5485,2023,95.84,-1.0,+,43.0,Active,0,LEO,USA,USA,Unknown,Unknown,Unknown,1 57261U 23094AV  24271.66595194  .00000096  00000+0  22212-4 0  9997,2 57261  43.0064  19.2772 0001396 259.3460 100.7225 15.02532235 67936,15.02532235,0.0001396,LEO
57262,STARLINK-5504,2023,95.84,-1.0,+,43.01,Active,0,LEO,USA,USA,Unknown,Unknown,Unknown,1 57262U 23094AW  24271.54213125  .00001819  00000+0  14966-3 0  9996,2 57262  43.0059   7.0654 0000699 282.5353  77.5411 15.02538981 67829,15.02538981,6.99e-05,LEO
57263,STARLINK-5509,2023,95.84,-1.0,+,43.0,Active,0,LEO,USA,USA,Unknown,Unknown,Unknown,1 57263U 23094AX  24271.59836029 -.00000040  00000+0  12085-4 0  9993,2 57263  43.0031  19.6306 0000797 258.8320 101.2433 15.02533201 67685,15.02533201,7.97e-05,LEO
57264,STARLINK-5858,2023,95.84,-1.0,+,43.01,Active,0,LEO,USA,USA,Unknown,Unknown,Unknown,1 57264U 23094AY  24271.59529557 -.00000371  00000+0 -12403-4 0  9991,2 57264  43.0068   6.6021 0001210 278.5511  81.5194 15.02524067 67839,15.02524067,0.000121,LEO
57265,STARLINK-5890,2023,95.84,-1.0,+,43.0,Active,0,LEO,USA,USA,Unknown,Unknown,Unknown,1 57265U 23094AZ  24271.59306955  .00000463  00000+0  49363-4 0  9992,2 57265  43.0043   6.5837 0001039 267.2091  92.8632 15.02531575 67838,15.02531575,0.0001039,LEO
57288,HULIANWANG JISHU SHIYAN A,2023,107.5,-1.0,+,86.5,Active,0,LEO,PRC,China,Unknown,Unknown,Unknown,1 57288U 23095A   24272.10288312  .00000102  00000+0  16018-3 0  9992,2 57288  86.5044 221.7106 0018908 131.8229 228.4532 13.39482180 59807,13.3948218,0.0018908,LEO
57289,HULIANWANG JISHU SHIYAN B,2023,107.5,-1.0,+,86.5,Active,0,LEO,PRC,China,Unknown,Unknown,Unknown,1 57289U 23095B   24272.09555278  .00000108  00000+0  17154-3 0  9997,2 57289  86.5046 221.7137 0017469 129.9394 230.3286 13.39483076 59809,13.39483076,0.0017469,LEO
57290,STARLINK-30198,2023,95.84,-1.0,+,43.0,Active,0,LEO,USA,USA,Unknown,Unknown,Unknown,1 57290U 23096A   24272.12610525  .00000394  00000+0  44242-4 0  9997,2 57290  43.0023 210.1790 0000908 269.2172  90.8566 15.02539689 67154,15.02539689,9.08e-05,LEO
57291,STARLINK-30239,2023,95.84,-1.0,+,43.0,Active,0,LEO,USA,USA,Unknown,Unknown,Unknown,1 57291U 23096B   24272.12277568  .00002779  00000+0  22067-3 0  9993,2 57291  43.0029 210.1560 0001613 271.8721  88.1936 15.02539616 67150,15.02539616,0.0001613,LEO
57292,STARLINK-30210,2023,95.84,-1.0,+,43.0,Active,0,LEO,USA,USA,Unknown,Unknown,Unknown,1 57292U 23096C   24272.11944648  .00002493  00000+0  19958-3 0  9991,2 57292  43.0040 210.1319 0001953 284.1936  75.8689 15.02538355 67177,15.02538355,0.0001953,LEO
57294,STARLINK-30235,2023,95.84,-1.0,+,43.0,Active,0,LEO,USA,USA,Unknown,Unknown,Unknown,1 57294U 23096E   24272.11278915 -.00000406  00000+0 -14958-4 0  9990,2 57294  43.0025 210.0759 0001445 264.4716  95.5962 15.02533598 67157,15.02533598,0.0001445,LEO
57295,STARLINK-30206,2023,95.84,-1.0,+,43.0,Active,0,LEO,USA,USA,Unknown,Unknown,Unknown,1 57295U 23096F   24271.53113212  .00001640  00000+0  13648-3 0  9997,2 57295  43.0026 213.4220 0001101 275.4334  84.6383 15.02532077 68165,15.02532077,0.0001101,LEO
57296,STARLINK-30238,2023,95.84,-1.0,+,43.0,Active,0,LEO,USA,USA,Unknown,Unknown,Unknown,1 57296U 23096G   24271.84355082  .00000497  00000+0  51865-4 0  9998,2 57296  43.0032 211.4961 0000840 279.8080  80.2668 15.02529418 68239,15.02529418,8.4e-05,LEO
57297,STARLINK-30234,2023,95.84,-1.0,+,43.0,Active,0,LEO,USA,USA,Unknown,Unknown,Unknown,1 57297U 23096H   24272.10612032 -.00000977  00000+0 -57280-4 0  9992,2 57297  43.0030 210.0319 0000897 277.7967  82.2773 15.02548982 67159,15.02548982,8.97e-05,LEO
57298,STARLINK-30241,2023,95.84,-1.0,+,43.0,Active,0,LEO,USA,USA,Unknown,Unknown,Unknown,1 57298U 23096J   24271.54767049  .00000621  00000+0  61060-4 0  9994,2 57298  43.0007 212.7088 0000719 288.4042  71.6722 15.02533183 68178,15.02533183,7.19e-05,LEO
57299,STARLINK-30199,2023,95.84,-1.0,+,43.0,Active,0,LEO,USA,USA,Unknown,Unknown,Unknown,1 57299U 23096K   24271.57098032  .00000295  00000+0  36901-4 0  9990,2 57299  43.0021 212.8944 0000735 272.5041  87.5717 15.02531826 68170,15.02531826,7.35e-05,LEO
57300,STARLINK-30236,2023,95.84,-1.0,+,43.0,Active,0,LEO,USA,USA,Unknown,Unknown,Unknown,1 57300U 23096L   24272.09947181  .00006003  00000+0  45922-3 0  9994,2 57300  43.0029 209.9762 0001367 271.6450  88.4235 15.02522703 67169,15.02522703,0.0001367,LEO
57301,STARLINK-30201,2023,95.84,-1.0,+,43.0,Active,0,LEO,USA,USA,Unknown,Unknown,Unknown,1 57301U 23096M   24271.56431469  .00001723  00000+0  14258-3 0  9995,2 57301  43.0010 212.8433 0000910 282.6609  77.4131 15.02540436 67075,15.02540436,9.1e-05,LEO
57302,STARLINK-30233,2023,95.84,-1.0,+,43.0,Active,0,LEO,USA,USA,Unknown,Unknown,Unknown,1 57302U 23096N   24271.22859453 -.00000545  00000+0 -25281-4 0  9998,2 57302  43.0000 214.6055 0001107 245.7400 114.3326 15.02527782 67226,15.02527782,0.0001107,LEO
57303,STARLINK-30232,2023,95.84,-1.0,+,43.0,Active,0,LEO,USA,USA,Unknown,Unknown,Unknown,1 57303U 23096P   24271.55766112  .00000131  00000+0  24759-4 0  9992,2 57303  43.0031 212.8077 0001780 262.8562  97.2078 15.02529075 68031,15.02529075,0.000178,LEO
57304,STARLINK-30211,2023,95.84,-1.0,+,43.0,Active,0,LEO,USA,USA,Unknown,Unknown,Unknown,1 57304U 23096Q   24271.55432402  .00000550  00000+0  55803-4 0  9994,2 57304  43.0040 212.7630 0001524 257.8480 102.2192 15.02532637 67081,15.02532637,0.0001524,LEO
57305,STARLINK-30177,2023,95.84,-1.0,+,43.0,Active,0,LEO,USA,USA,Unknown,Unknown,Unknown,1 57305U 23096R   24271.55100161  .00000661  00000+0  63990-4 0  9998,2 57305  43.0023 212.7438 0000497 249.4652 110.6137 15.02530559 67279,15.02530559,4.97e-05,LEO
57306,STARLINK-30200,2023,95.84,-1.0,+,43.01,Active,0,LEO,USA,USA,Unknown,Unknown,Unknown,1 57306U 23096S   24271.82134907  .00000299  00000+0  37239-4 0  9998,2 57306  43.0051 211.3277 0001595 278.6274  81.4387 15.02531111 67313,15.02531111,0.0001595,LEO
57307,STARLINK-30209,2023,95.84,-1.0,+,43.0,Active,0,LEO,USA,USA,Unknown,Unknown,Unknown,1 57307U 23096T   24271.81024717  .00000064  00000+0  19843-4 0  9996,2 57307  43.0038 211.2412 0001233 268.1886  91.8816 15.02534675 67311,15.02534675,0.0001233,LEO
57308,STARLINK-30194,2023,95.84,-1.0,+,43.0,Active,0,LEO,USA,USA,Unknown,Unknown,Unknown,1 57308U 23096U   24272.13930058  .00001303  00000+0  11146-3 0  9991,2 57308  43.0018 209.4173 0001213 269.6788  90.3916 15.02541376 67162,15.02541376,0.0001213,LEO
57309,STARLINK-30163,2023,95.82,-1.0,+,43.0,Active,0,LEO,USA,USA,Unknown,Unknown,Unknown,1 57309U 23096V   24271.52775214  .00026893  00000+0  19846-2 0  9990,2 57309  43.0018 212.5724 0000993 152.7252 207.3642 15.02794826 67269,15.02794826,9.93e-05,LEO
57310,STARLINK-30184,2023,95.84,-1.0,+,43.0,Active,0,LEO,USA,USA,Unknown,Unknown,Unknown,1 57310U 23096W   24271.48505723 -.00000579  00000+0 -27792-4 0  9999,2 57310  43.0052 187.2507 0001284 276.1701  83.8995 15.02534438 67562,15.02534438,0.0001284,LEO
